[{"OBJECT_NAME":"AURA","OBJECT_ID":"2004-026A","EPOCH":"2026-03-09T21:39:31.960800","MEAN_MOTION":14.61149986,"ECCENTRICITY":0.0001042,"INCLINATION":98.3311,"RA_OF_ASC_NODE":24.6066,"ARG_OF_PERICENTER":85.0806,"MEAN_ANOMALY":275.0513,"EPHEMERIS_TYPE":0,"CLASSIFICATION_TYPE":"U","NORAD_CAT_ID":28376,"ELEMENT_SET_NO":999,"REV_AT_EPOCH":15171,"BSTAR":0.00028939986,"MEAN_MOTION_DOT":1.376e-5,"MEAN_MOTION_DDOT":0},{"OBJECT_NAME":"COSMOS 2251 DEB","OBJECT_ID":"1993-036KK","EPOCH":"2026-03-09T21:57:14.285088","MEAN_MOTION":14.58364845,"ECCENTRICITY":0.00450986,"INCLINATION":74.0576,"RA_OF_ASC_NODE":238.3959,"ARG_OF_PERICENTER":214.5489,"MEAN_ANOMALY":266.9752,"EPHEMERIS_TYPE":0,"CLASSIFICATION_TYPE":"U","NORAD_CAT_ID":34114,"ELEMENT_SET_NO":999,"REV_AT_EPOCH":89071,"BSTAR":0.0026892954,"MEAN_MOTION_DOT":0.00012624,"MEAN_MOTION_DDOT":0}]
